{
    "links": {
        "self": "http://www.neowsapp.com/rest/v1/neo/3771584?api_key=iIulBulltgU6a56xZRHN4H3l9WmuAYTsLGpBGhQ2"
    },
    "id": "3771584",
    "neo_reference_id": "3771584",
    "name": "(2017 FO)",
    "designation": "2017 FO",
    "nasa_jpl_url": "http://ssd.jpl.nasa.gov/sbdb.cgi?sstr=3771584",
    "absolute_magnitude_h": 26.4,
    "estimated_diameter": {
        "kilometers": {
            "estimated_diameter_min": 0.0139493823,
            "estimated_diameter_max": 0.0311917671
        },
        "meters": {
            "estimated_diameter_min": 13.9493822934,
            "estimated_diameter_max": 31.1917670523
        },
        "miles": {
            "estimated_diameter_min": 0.0086677416,
            "estimated_diameter_max": 0.0193816595
        },
        "feet": {
            "estimated_diameter_min": 45.7656914036,
            "estimated_diameter_max": 102.3351970157
        }
    },
    "is_potentially_hazardous_asteroid": false,
    "close_approach_data": [
        {
            "close_approach_date": "2017-03-21",
            "close_approach_date_full": "2017-Mar-21 21:45",
            "epoch_date_close_approach": 1490132700000,
            "relative_velocity": {
                "kilometers_per_second": "10.0944338007",
                "kilometers_per_hour": "36339.9616824473",
                "miles_per_hour": "22580.2389687406"
            },
            "miss_distance": {
                "astronomical": "0.0313140028",
                "lunar": "12.1811470892",
                "kilometers": "4684508.120054036",
                "miles": "2910818.3693602568"
            },
            "orbiting_body": "Earth"
        },
        {
            "close_approach_date": "2017-07-31",
            "close_approach_date_full": "2017-Jul-31 03:10",
            "epoch_date_close_approach": 1501470600000,
            "relative_velocity": {
                "kilometers_per_second": "6.7110899372",
                "kilometers_per_hour": "24159.9237738068",
                "miles_per_hour": "15012.0370804523"
            },
            "miss_distance": {
                "astronomical": "0.3638406264",
                "lunar": "141.5340036696",
                "kilometers": "54429782.728905768",
                "miles": "33821098.6825568784"
            },
            "orbiting_body": "Earth"
        }
    ],
    "orbital_data": {
        "orbit_id": "3",
        "orbit_determination_date": "2017-04-06 08:19:29",
        "first_observation_date": "2017-03-17",
        "last_observation_date": "2017-03-19",
        "data_arc_in_days": 2,
        "observations_used": 26,
        "orbit_uncertainty": "8",
        "minimum_orbit_intersection": ".0298099",
        "jupiter_tisserand_invariant": "4.658",
        "epoch_osculation": "2457830.5",
        "eccentricity": ".3227164249596033",
        "semi_major_axis": "1.405113866767796",
        "inclination": "13.86166189708099",
        "ascending_node_longitude": "176.0690192659517",
        "orbital_period": "608.3670814936437",
        "perihelion_distance": ".9516605430233283",
        "perihelion_argument": "47.73337227184079",
        "aphelion_distance": "1.858567190512263",
        "perihelion_time": "2457871.293381712194",
        "mean_anomaly": "335.8605982093341",
        "mean_motion": ".5917479938528878",
        "equinox": "J2000",
        "orbit_class": {
            "orbit_class_type": "APO",
            "orbit_class_description": "Near-Earth asteroid orbits which cross the Earth’s orbit similar to that of 1862 Apollo",
            "orbit_class_range": "a (semi-major axis) > 1.0 AU; q (perihelion) < 1.017 AU"
        }
    },
    "is_sentry_object": false
}